{"type": "FeatureCollection", "features": [{"type": "Feature", "properties": {"wetland_id": "exotico", "nombre": "Parcela exótico", "color": "#c0392b"}, "geometry": {"type": "Polygon", "coordinates": [[[-70.69155255141281, -33.35433914636989], [-70.6914241807551, -33.35431287949024], [-70.69138384182916, -33.35451502698535], [-70.69151002901894, -33.35454183338165], [-70.69155255141281, -33.35433914636989]]]}}, {"type": "Feature", "properties": {"wetland_id": "cae1", "nombre": "Parcela CAE 1", "color": "#1d6b4a"}, "geometry": {"type": "Polygon", "coordinates": [[[-70.69127440138544, -33.354281518405955], [-70.69114822308684, -33.35425481118636], [-70.69110580148737, -33.35445743187714], [-70.69123140851008, -33.35448361226361], [-70.69127440138544, -33.354281518405955]]]}}, {"type": "Feature", "properties": {"wetland_id": "cae2", "nombre": "Parcela CAE 2", "color": "#2b6cb0"}, "geometry": {"type": "Polygon", "coordinates": [[[-70.69129722496132, -33.3545505180668], [-70.69109470230897, -33.35450736663196], [-70.69098871559183, -33.35501279750522], [-70.69119026626419, -33.35505550507964], [-70.69129722496132, -33.3545505180668]]]}}]}