{"type": "FeatureCollection", "features": [{"type": "Feature", "properties": {"predio_id": "exotico", "nombre": "Predio exótico", "color": "#c0392b"}, "geometry": {"type": "Polygon", "coordinates": [[[-70.69156868390827, -33.354339023320264], [-70.69141925853901, -33.354305780693885], [-70.69137786531645, -33.354496517134805], [-70.69152417886619, -33.35452814644737], [-70.69156868390827, -33.354339023320264]]]}}, {"type": "Feature", "properties": {"predio_id": "cae1", "nombre": "Predio CAE 1", "color": "#1d6b4a"}, "geometry": {"type": "Polygon", "coordinates": [[[-70.69129469357567, -33.354278604880164], [-70.69114795093064, -33.354246599658296], [-70.6911055369926, -33.354438929931284], [-70.6912503657359, -33.35446930731599], [-70.69129469357567, -33.354278604880164]]]}}, {"type": "Feature", "properties": {"predio_id": "cae2", "nombre": "Predio CAE 2", "color": "#2b6cb0"}, "geometry": {"type": "Polygon", "coordinates": [[[-70.69132559268132, -33.35450884039591], [-70.69110395293022, -33.35446603706764], [-70.69100293422201, -33.35492714167038], [-70.69122586008103, -33.354969597564754], [-70.69132559268132, -33.35450884039591]]]}}]}